OBJECT_NAME,OBJECT_ID,EPOCH,MEAN_MOTION,ECCENTRICITY,INCLINATION,RA_OF_ASC_NODE,ARG_OF_PERICENTER,MEAN_ANOMALY,EPHEMERIS_TYPE,CLASSIFICATION_TYPE,NORAD_CAT_ID,ELEMENT_SET_NO,REV_AT_EPOCH,BSTAR,MEAN_MOTION_DOT,MEAN_MOTION_DDOT
GSAT-17,2017-040B,2026-06-11T08:33:10.933920,1.00270654,.0001601,0.1114,88.0254,207.2283,186.2546,0,U,42815,999,3273,0,-.241E-5,0
INTELSAT 35E (IS-35E),2017-041A,2026-06-12T06:35:39.169824,1.00270153,.00015461,0.0012,4.8318,71.3906,248.8223,0,U,42818,999,3276,0,-.223E-5,0
TDRS 13,2017-047A,2026-06-12T06:18:03.976992,1.00271525,.00144653,3.4504,2.6020,106.0673,235.0069,0,U,42915,999,3229,0,-.87E-6,0
QZS-3 (MICHIBIKI-3),2017-048A,2026-06-12T06:57:30.754656,1.00265367,.00024158,0.0252,184.7315,266.4892,40.7558,0,U,42917,999,3221,0,0,0
AMAZONAS 5,2017-053A,2026-06-09T07:54:55.355040,1.00270254,.00024128,0.0312,323.9850,64.7103,286.7531,0,U,42934,999,3196,0,-.266E-5,0
INTELSAT 37E (IS-37E),2017-059A,2026-06-12T06:16:11.656992,1.00272904,.00023852,0.0159,27.6250,71.5372,237.4854,0,U,42950,999,3201,0,-.125E-5,0
BSAT-4A,2017-059B,2026-06-09T00:10:15.784896,1.00272912,.0004164,0.0365,6.7991,58.5529,304.4340,0,U,42951,999,3171,0,-.334E-5,0
QZS-4 (MICHIBIKI-4),2017-062A,2026-06-11T08:43:46.488864,1.00252284,.07452,40.1116,343.5575,271.6390,272.9173,0,U,42965,999,3174,0,-.318E-5,0
SES-11 (ECHOSTAR 105),2017-063A,2026-06-09T16:15:41.654016,1.00270770,.00026793,0.0151,352.2876,98.2971,306.4353,0,U,42967,999,3164,0,-.72E-6,0
KOREASAT 5A,2017-067A,2026-06-12T06:53:31.138944,1.00269063,.00004415,0.0096,324.4145,142.0867,10.6440,0,U,42984,999,3148,0,-.343E-5,0
ALCOMSAT 1,2017-078A,2026-06-12T06:14:11.847840,1.00271648,.00021842,0.0438,76.3959,0.1278,252.8341,0,U,43039,999,3124,0,-.171E-5,0
SBIRS GEO-3 (USA 282),2018-009A,2026-06-12T07:04:08.302656,1.00271475,.00018784,2.1807,11.8584,64.4795,130.9276,0,U,43162,999,3079,0,.142E-5,0
AL YAH 3,2018-012A,2026-06-12T06:15:34.217280,1.00270494,.0003926,1.5385,83.1642,357.8553,253.3686,0,U,43174,999,3079,0,-.141E-5,0
SES-14,2018-012B,2026-06-09T11:24:01.053216,1.00270313,.00010572,0.0220,31.0141,53.8990,296.4420,0,U,43175,999,694,0,-.261E-5,0
GOES 17,2018-022A,2026-06-12T05:55:50.419776,1.00270638,.00004559,0.9240,85.7987,26.2240,148.0277,0,U,43226,999,3037,0,-.167E-5,0
HISPASAT 30W-6,2018-023A,2026-06-09T04:38:24.091296,1.00270107,.0006065,0.0466,43.0702,24.4046,229.6971,0,U,43228,999,3032,0,-.199E-5,0
SUPERBIRD-B3,2018-033A,2026-06-12T05:24:49.292064,1.00270423,.00011889,0.0132,326.5571,143.4640,33.7413,0,U,43271,999,3001,0,-.77E-6,0
HYLAS 4,2018-033B,2026-06-11T16:30:10.964160,1.00269105,.00011646,0.0185,56.9141,24.2309,32.9514,0,U,43272,999,3001,0,-.217E-5,0
IRNSS-1I,2018-035A,2026-06-11T20:20:50.179200,1.00270911,.00178861,28.7419,74.2800,181.8135,4.1621,0,U,43286,999,3002,0,.79E-6,0
USA 283,2018-036A,2026-06-10T10:28:38.701920,1.00269147,.000013,0.0149,323.1993,214.6638,12.1871,0,U,43339,999,2522,0,0,0
BANGABANDHUSAT-1,2018-044A,2026-06-11T16:14:27.515040,1.00267647,.00016819,0.0190,5.3701,79.9183,177.4299,0,U,43463,999,2965,0,0,0
SES-12,2018-049A,2026-06-12T06:48:08.593920,1.00272491,.00009863,0.0185,25.1328,273.7329,158.8011,0,U,43488,999,2937,0,-.254E-5,0
BEIDOU-2 IGSO-7,2018-057A,2026-06-11T22:19:03.996768,1.00252608,.01048835,55.1941,163.1041,237.9036,304.3892,0,U,43539,999,2907,0,.35E-6,0
TELSTAR 19V,2018-059A,2026-06-12T06:29:29.705280,1.00270259,.00024796,0.0060,237.5001,236.3614,181.1159,0,U,43562,999,2909,0,-.264E-5,0
TELKOM 4 (MERAH PUTIH),2018-064A,2026-06-11T20:20:38.772672,1.00267424,.00013111,0.0216,11.1867,107.5880,194.5610,0,U,43587,999,2882,0,0,0
TELSTAR 18V,2018-069A,2026-06-12T07:00:37.955808,1.00269028,.00016486,0.0151,318.8856,122.1662,62.7326,0,U,43611,999,2859,0,-.279E-5,0
